STARLINK-33629          
1 63388U 25063AB  26068.23451242  .00026536  00000+0  90479-3 0  9992
2 63388  53.1601  52.1663 0001253  81.3819 278.7324 15.30202428 54728
2025-313BE              
1 67482U 25313BE  26068.69721505  .00077178  00000+0  26504-2 0  9996
2 67482  97.3989 145.3568 0007208 335.3714  24.7181 15.29801687  7972
