[{"OBJECT_NAME":"STARLINK-33629","OBJECT_ID":"2025-063AB","EPOCH":"2026-03-09T05:37:41.873088","MEAN_MOTION":15.30202428,"ECCENTRICITY":0.00012533,"INCLINATION":53.1601,"RA_OF_ASC_NODE":52.1663,"ARG_OF_PERICENTER":81.3819,"MEAN_ANOMALY":278.7324,"EPHEMERIS_TYPE":0,"CLASSIFICATION_TYPE":"U","NORAD_CAT_ID":63388,"ELEMENT_SET_NO":999,"REV_AT_EPOCH":5472,"BSTAR":0.00090478826,"MEAN_MOTION_DOT":0.00026536,"MEAN_MOTION_DDOT":0},{"OBJECT_NAME":"OBJECT BE","OBJECT_ID":"2025-313BE","EPOCH":"2026-03-09T16:43:59.380320","MEAN_MOTION":15.29801687,"ECCENTRICITY":0.00072083,"INCLINATION":97.3989,"RA_OF_ASC_NODE":145.3568,"ARG_OF_PERICENTER":335.3714,"MEAN_ANOMALY":24.7181,"EPHEMERIS_TYPE":0,"CLASSIFICATION_TYPE":"U","NORAD_CAT_ID":67482,"ELEMENT_SET_NO":999,"REV_AT_EPOCH":797,"BSTAR":0.0026504328,"MEAN_MOTION_DOT":0.00077178,"MEAN_MOTION_DDOT":0}]
